     2.10           N: GNSS NAV DATA    E: Galileo          RINEX VERSION / TYPE
RTKCONV 2.4.2                           20231216 165044 UTC PGM / RUN BY / DATE 
log: C:\Users\adminlocal\Desktop\verniquet\verniquet\micro  COMMENT             
format: u-blox                                              COMMENT             
                                                            END OF HEADER       
E 2 2023 12 16 13 10  0  .870982767083E-04  .312638803734E-11  .000000000000E+00
      .470000000000E+02  .100937500000E+02  .332263840123E-08  .269232965125E+00
      .461935997009E-06  .466755009256E-03  .756420195103E-05  .544061574745E+04
      .565800000000E+06  .279396772385E-07  .293994217495E+01  .149011611938E-07
      .968125198346E+00  .179750000000E+03  .424466732537E+00 -.546987069921E-08
     -.620382984299E-09  .100000000000E+01  .229200000000E+04  .000000000000E+00
      .327670000000E+05  .000000000000E+00 -.698491930962E-09 -.162981450558E-08
      .566929000000E+06  .000000000000E+00
E25 2023 12 16 13 10  0 -.188598642126E-05  .582645043323E-12  .000000000000E+00
      .470000000000E+02  .921875000000E+01  .324906390798E-08  .161490103497E+01
      .409781932831E-06  .223965034820E-03  .803917646408E-05  .544060698700E+04
      .565800000000E+06 -.372529029846E-08  .293687748739E+01  .130385160446E-07
      .967720259696E+00  .171968750000E+03 -.152457252765E+00 -.541522556588E-08
     -.630740558590E-09  .100000000000E+01  .229200000000E+04  .000000000000E+00
      .327670000000E+05  .000000000000E+00  .395812094212E-08  .419095158577E-08
      .566929000000E+06  .000000000000E+00
E 3 2023 12 16 13  0  0 -.804907176644E-04 -.261479726760E-11  .000000000000E+00
      .460000000000E+02 -.156187500000E+03  .298869591975E-08  .151831238666E+01
     -.708922743797E-05  .257712788880E-03  .127777457237E-04  .544061335754E+04
      .565200000000E+06 -.186264514923E-07  .837746142849E+00  .242143869400E-07
      .960037882917E+00  .651875000000E+02  .117270648853E+01 -.533522223342E-08
      .392159192147E-09  .100000000000E+01  .229200000000E+04  .000000000000E+00
      .327670000000E+05  .000000000000E+00  .395812094212E-08  .419095158577E-08
      .566929000000E+06  .000000000000E+00
E 8 2023 12 16 12 50  0 -.193064508494E-03 -.586908299738E-11  .000000000000E+00
      .450000000000E+02 -.165250000000E+03  .280690263305E-08  .799283454736E+00
     -.752136111259E-05  .177540001459E-03  .116545706987E-04  .544062354660E+04
      .564600000000E+06  .558793544769E-08  .836964790989E+00  .167638063431E-07
      .965926265700E+00  .926562500000E+02  .105275653798E+01 -.528843457024E-08
      .373586989969E-09  .100000000000E+01  .229200000000E+04  .000000000000E+00
      .327670000000E+05  .000000000000E+00 -.325962901115E-08 -.395812094212E-08
      .566929000000E+06  .000000000000E+00
E 7 2023 12 16 13 10  0 -.933330156840E-04 -.193267624127E-11  .000000000000E+00
      .470000000000E+02 -.137875000000E+03  .297655255679E-08  .946943168601E+00
     -.637769699097E-05  .613307347521E-04  .109709799290E-04  .544061383820E+04
      .565800000000E+06  .111758708954E-07  .837800462461E+00  .186264514923E-08
      .960079900850E+00  .105250000000E+03  .259785949265E+00 -.532629329007E-08
      .360729311538E-09  .100000000000E+01  .229200000000E+04  .000000000000E+00
      .327670000000E+05  .000000000000E+00  .558793544769E-08  .605359673500E-08
      .566929000000E+06  .000000000000E+00
E30 2023 12 16 13 10  0 -.746538455132E-03 -.308659764414E-10  .000000000000E+00
      .470000000000E+02  .246875000000E+01  .341407078118E-08 -.873519310203E+00
      .186264514923E-07  .513135921210E-03  .725686550140E-05  .544061410522E+04
      .565800000000E+06  .167638063431E-07  .294009453787E+01 -.111758708954E-07
      .965546711605E+00  .183718750000E+03  .771794216076E+00 -.552951604082E-08
     -.624311719375E-09  .100000000000E+01  .229200000000E+04  .000000000000E+00
      .327670000000E+05  .000000000000E+00  .256113708019E-08  .232830643654E-08
      .566929000000E+06  .000000000000E+00
E 2 2023 12 16 13 20  0  .871002557687E-04  .314059889206E-11  .000000000000E+00
      .480000000000E+02  .103437500000E+02  .332228124349E-08  .343499986599E+00
      .476837158203E-06  .466798781417E-03  .759214162827E-05  .544061588860E+04
      .566400000000E+06  .298023223877E-07  .293993888631E+01  .167638063431E-07
      .968124816525E+00  .179250000000E+03  .424585146978E+00 -.547058501468E-08
     -.618954353362E-09  .100000000000E+01  .229200000000E+04  .000000000000E+00
      .327670000000E+05  .000000000000E+00 -.698491930962E-09 -.162981450558E-08
      .567079000000E+06  .000000000000E+00
E25 2023 12 16 13 20  0 -.188575359061E-05  .568434188608E-12  .000000000000E+00
      .480000000000E+02  .859375000000E+01  .324906390798E-08  .168896911714E+01
      .372529029846E-06  .223908806220E-03  .806152820587E-05  .544060716820E+04
      .566400000000E+06 -.372529029846E-08  .293687424263E+01  .130385160446E-07
      .967719882263E+00  .171625000000E+03 -.152139581567E+00 -.541522556588E-08
     -.631097716324E-09  .100000000000E+01  .229200000000E+04  .000000000000E+00
      .327670000000E+05  .000000000000E+00  .395812094212E-08  .419095158577E-08
      .567079000000E+06  .000000000000E+00
E 7 2023 12 16 13 20  0 -.933342380449E-04 -.194688709598E-11  .000000000000E+00
      .480000000000E+02 -.139562500000E+03  .296369487836E-08  .101433871464E+01
     -.645034015179E-05  .613336451352E-04  .111013650894E-04  .544061469078E+04
      .566400000000E+06  .111758708954E-07  .837797260133E+00  .186264514923E-08
      .960080112973E+00  .102281250000E+03  .266775973730E+00 -.532593613233E-08
      .361443627006E-09  .100000000000E+01  .229200000000E+04  .000000000000E+00
      .327670000000E+05  .000000000000E+00  .558793544769E-08  .605359673500E-08
      .567079000000E+06  .000000000000E+00
E30 2023 12 16 13 20  0 -.746556965169E-03 -.308801872961E-10  .000000000000E+00
      .480000000000E+02  .293750000000E+01  .341657088532E-08 -.799098438023E+00
      .596046447754E-07  .513205537573E-03  .723451375961E-05  .544061425018E+04
      .566400000000E+06  .167638063431E-07  .294009121997E+01 -.111758708954E-07
      .965546335635E+00  .183968750000E+03  .771758880752E+00 -.552951604082E-08
     -.624311719375E-09  .100000000000E+01  .229200000000E+04  .000000000000E+00
      .327670000000E+05  .000000000000E+00  .256113708019E-08  .232830643654E-08
      .567079000000E+06  .000000000000E+00
E 2 2023 12 16 13 30  0  .871021184139E-04  .314059889206E-11  .000000000000E+00
      .490000000000E+02  .105312500000E+02  .332192408576E-08  .417763210337E+00
      .486150383949E-06  .466836965643E-03  .762008130550E-05  .544061602211E+04
      .567000000000E+06  .316649675369E-07  .293993559328E+01  .186264514923E-07
      .968124434703E+00  .178718750000E+03  .424707356229E+00 -.547094217242E-08
     -.616811406957E-09  .100000000000E+01  .229200000000E+04  .000000000000E+00
      .327670000000E+05  .000000000000E+00 -.698491930962E-09 -.162981450558E-08
      .567679000000E+06  .000000000000E+00
E 7 2023 12 16 13 30  0 -.933355186135E-04 -.194688709598E-11  .000000000000E+00
      .490000000000E+02 -.142062500000E+03  .294905141126E-08  .108062993015E+01
     -.655651092529E-05  .613030279055E-04  .112354755402E-04  .544061568069E+04
      .567000000000E+06  .931322574615E-08  .837794059268E+00  .186264514923E-08
      .960080330948E+00  .991250000000E+02  .274870336036E+00 -.532557897460E-08
      .362157942475E-09  .100000000000E+01  .229200000000E+04  .000000000000E+00
      .327670000000E+05  .000000000000E+00  .558793544769E-08  .605359673500E-08
      .567679000000E+06  .000000000000E+00
E30 2023 12 16 13 30  0 -.746575416997E-03 -.308801872961E-10  .000000000000E+00
      .490000000000E+02  .350000000000E+01  .341907098946E-08 -.724686618381E+00
      .104308128357E-06  .513282371685E-03  .721774995327E-05  .544061440849E+04
      .567000000000E+06  .167638063431E-07  .294008789915E+01 -.111758708954E-07
      .965545959665E+00  .184218750000E+03  .771732600892E+00 -.552987319856E-08
     -.623954561641E-09  .100000000000E+01  .229200000000E+04  .000000000000E+00
      .327670000000E+05  .000000000000E+00  .256113708019E-08  .232830643654E-08
      .567679000000E+06  .000000000000E+00
E 8 2023 12 16 13 30  0 -.193078594748E-03 -.588329385209E-11  .000000000000E+00
      .490000000000E+02 -.166812500000E+03  .279868800516E-08  .109570017928E+01
     -.757537782192E-05  .177568290383E-03  .116359442472E-04  .544062394905E+04
      .567000000000E+06  .558793544769E-08  .836952114804E+00  .186264514923E-07
      .965927156618E+00  .931250000000E+02  .105387892238E+01 -.528986320118E-08
      .372872674501E-09  .100000000000E+01  .229200000000E+04  .000000000000E+00
      .327670000000E+05  .000000000000E+00 -.325962901115E-08 -.395812094212E-08
      .568249000000E+06  .000000000000E+00
E 8 2023 12 16 13 40  0 -.193082087208E-03 -.588329385209E-11  .000000000000E+00
      .500000000000E+02 -.165375000000E+03  .280583115984E-08  .117153597266E+01
     -.750832259655E-05  .177603680640E-03  .117048621178E-04  .544062343407E+04
      .567600000000E+06  .372529029846E-08  .836948951975E+00  .204890966415E-07
      .965927376055E+00  .915937500000E+02  .105242767400E+01 -.529129183211E-08
      .372515516767E-09  .100000000000E+01  .229200000000E+04  .000000000000E+00
      .327670000000E+05  .000000000000E+00 -.325962901115E-08 -.395812094212E-08
      .568279000000E+06  .000000000000E+00
